start=new Date('2023-01-21T00:00:00.000Z').valueOf();
sats=[{"INCLINATION":"53.0542","CLASSIFICATION_TYPE":"U","TIME_SYSTEM":"UTC","ARG_OF_PERICENTER":"100.7628","MEAN_MOTION_DOT":"0.00006137","EPOCH":"2023-01-20T10:02:35.662848","TLE_LINE1":"1 47871U 21021M   23020.41846832  .00006137  00000-0  43066-3 0  9995","ECCENTRICITY":"0.00020850","MEAN_MOTION":"15.06387181","MEAN_ANOMALY":"259.3596","GP_ID":"223545448","MEAN_MOTION_DDOT":"0.0000000000000","SITE":"AFETR","ELEMENT_SET_NO":"999","FILE":"3755973","DECAY_DATE":null,"REV_AT_EPOCH":"10386","BSTAR":"0.00043066000000","PERIAPSIS":"545.809","OBJECT_NAME":"STARLINK-2327","APOAPSIS":"548.697","MEAN_ELEMENT_THEORY":"SGP4","REF_FRAME":"TEME","TLE_LINE2":"2 47871  53.0542 358.4507 0002085 100.7628 259.3596 15.06387181103866","OBJECT_TYPE":"PAYLOAD","NORAD_CAT_ID":"47871","COUNTRY_CODE":"US","EPHEMERIS_TYPE":"0","RA_OF_ASC_NODE":"358.4507","SEMIMAJOR_AXIS":"6925.388","OBJECT_ID":"2021-021M","CENTER_NAME":"EARTH","LAUNCH_DATE":"2021-03-14","RCS_SIZE":"LARGE","PERIOD":"95.593"},{"OBJECT_NAME":"STARLINK-2328","APOAPSIS":"344.448","MEAN_ELEMENT_THEORY":"SGP4","REF_FRAME":"TEME","TLE_LINE2":"2 47872  53.0476 213.0902 0001141 307.0517 349.6080 15.75334659  1304","OBJECT_TYPE":"PAYLOAD","NORAD_CAT_ID":"47872","EPHEMERIS_TYPE":"0","COUNTRY_CODE":"US","SEMIMAJOR_AXIS":"6721.816","OBJECT_ID":"2021-021N","CENTER_NAME":"EARTH","RA_OF_ASC_NODE":"213.0902","PERIOD":"91.409","RCS_SIZE":"LARGE","LAUNCH_DATE":"2021-03-14","INCLINATION":"53.0476","TIME_SYSTEM":"UTC","CLASSIFICATION_TYPE":"U","ARG_OF_PERICENTER":"307.0517","EPOCH":"2023-01-20T16:00:00.999936","MEAN_MOTION_DOT":"0.00198035","MEAN_MOTION":"15.75334659","ECCENTRICITY":"0.00011410","TLE_LINE1":"1 47872U 21021N   23020.66667824  .00198035  00000-0  12606-2 0  9999","MEAN_ANOMALY":"349.6080","GP_ID":"223546200","SITE":"AFETR","MEAN_MOTION_DDOT":"0.0000000000000","REV_AT_EPOCH":"130","DECAY_DATE":null,"PERIAPSIS":"342.914","BSTAR":"0.00126060000000","ELEMENT_SET_NO":"999","FILE":"3755973"},{"PERIOD":"95.592","RCS_SIZE":"LARGE","LAUNCH_DATE":"2021-03-14","EPHEMERIS_TYPE":"0","COUNTRY_CODE":"US","CENTER_NAME":"EARTH","OBJECT_ID":"2021-021P","SEMIMAJOR_AXIS":"6925.357","RA_OF_ASC_NODE":"359.4226","REF_FRAME":"TEME","MEAN_ELEMENT_THEORY":"SGP4","NORAD_CAT_ID":"47873","TLE_LINE2":"2 47873  53.0549 359.4226 0002028  97.0023 263.1197 15.06397323103823","OBJECT_TYPE":"PAYLOAD","APOAPSIS":"548.626","OBJECT_NAME":"STARLINK-2329","BSTAR":"0.00149100000000","PERIAPSIS":"545.817","REV_AT_EPOCH":"10382","DECAY_DATE":null,"FILE":"3755973","ELEMENT_SET_NO":"999","GP_ID":"223545949","MEAN_ANOMALY":"263.1197","SITE":"AFETR","MEAN_MOTION_DDOT":"0.0000000000000","ECCENTRICITY":"0.00020280","MEAN_MOTION":"15.06397323","TLE_LINE1":"1 47873U 21021P   23020.20099953  .00021995  00000-0  14910-2 0  9992","CLASSIFICATION_TYPE":"U","TIME_SYSTEM":"UTC","ARG_OF_PERICENTER":"97.0023","INCLINATION":"53.0549","EPOCH":"2023-01-20T04:49:26.359392","MEAN_MOTION_DOT":"0.00021995"},{"NORAD_CAT_ID":"47874","TLE_LINE2":"2 47874  53.0536 315.5873 0001553  93.3439 266.7727 15.06392435103943","OBJECT_TYPE":"PAYLOAD","REF_FRAME":"TEME","MEAN_ELEMENT_THEORY":"SGP4","APOAPSIS":"548.312","OBJECT_NAME":"STARLINK-2330","PERIOD":"95.593","RCS_SIZE":"LARGE","LAUNCH_DATE":"2021-03-14","CENTER_NAME":"EARTH","SEMIMAJOR_AXIS":"6925.372","OBJECT_ID":"2021-021Q","RA_OF_ASC_NODE":"315.5873","EPHEMERIS_TYPE":"0","COUNTRY_CODE":"US","MEAN_MOTION":"15.06392435","ECCENTRICITY":"0.00015530","TLE_LINE1":"1 47874U 21021Q   23019.94529445  .00000111  00000-0  26366-4 0  9993","EPOCH":"2023-01-19T22:41:13.440480","MEAN_MOTION_DOT":"0.00000111","TIME_SYSTEM":"UTC","CLASSIFICATION_TYPE":"U","ARG_OF_PERICENTER":"93.3439","INCLINATION":"53.0536","PERIAPSIS":"546.161","BSTAR":"0.00002636600000","DECAY_DATE":null,"REV_AT_EPOCH":"10394","FILE":"3755519","ELEMENT_SET_NO":"999","SITE":"AFETR","MEAN_MOTION_DDOT":"0.0000000000000","GP_ID":"223513836","MEAN_ANOMALY":"266.7727"},{"REF_FRAME":"TEME","MEAN_ELEMENT_THEORY":"SGP4","NORAD_CAT_ID":"47875","TLE_LINE2":"2 47875  53.0550   7.6781 0001900  91.3294 268.7913 15.06397361103278","OBJECT_TYPE":"PAYLOAD","APOAPSIS":"548.537","OBJECT_NAME":"STARLINK-2331","PERIOD":"95.592","LAUNCH_DATE":"2021-03-14","RCS_SIZE":"LARGE","EPHEMERIS_TYPE":"0","COUNTRY_CODE":"US","CENTER_NAME":"EARTH","OBJECT_ID":"2021-021R","SEMIMAJOR_AXIS":"6925.357","RA_OF_ASC_NODE":"7.6781","MEAN_MOTION":"15.06397361","ECCENTRICITY":"0.00019000","TLE_LINE1":"1 47875U 21021R   23020.59078438  .00007784  00000-0  54090-3 0  9995","TIME_SYSTEM":"UTC","CLASSIFICATION_TYPE":"U","ARG_OF_PERICENTER":"91.3294","INCLINATION":"53.0550","EPOCH":"2023-01-20T14:10:43.770432","MEAN_MOTION_DOT":"0.00007784","PERIAPSIS":"545.906","BSTAR":"0.00054090000000","REV_AT_EPOCH":"10327","DECAY_DATE":null,"FILE":"3756217","ELEMENT_SET_NO":"999","GP_ID":"223555622","MEAN_ANOMALY":"268.7913","SITE":"AFETR","MEAN_MOTION_DDOT":"0.0000000000000"},{"SITE":"AFETR","MEAN_MOTION_DDOT":"0.0000000000000","MEAN_ANOMALY":"269.3597","GP_ID":"223555617","DECAY_DATE":null,"REV_AT_EPOCH":"10328","PERIAPSIS":"546.011","BSTAR":"0.00010019000000","ELEMENT_SET_NO":"999","FILE":"3756217","EPOCH":"2023-01-20T15:30:20.920608","MEAN_MOTION_DOT":"0.00001211","INCLINATION":"53.0559","ARG_OF_PERICENTER":"90.7595","CLASSIFICATION_TYPE":"U","TIME_SYSTEM":"UTC","ECCENTRICITY":"0.00017700","MEAN_MOTION":"15.06392563","TLE_LINE1":"1 47876U 21021S   23020.64607547  .00001211  00000-0  10019-3 0  9993","OBJECT_ID":"2021-021S","SEMIMAJOR_AXIS":"6925.371","CENTER_NAME":"EARTH","RA_OF_ASC_NODE":"7.4279","EPHEMERIS_TYPE":"0","COUNTRY_CODE":"US","PERIOD":"95.593","LAUNCH_DATE":"2021-03-14","RCS_SIZE":"LARGE","OBJECT_NAME":"STARLINK-2332","APOAPSIS":"548.462","TLE_LINE2":"2 47876  53.0559   7.4279 0001770  90.7595 269.3597 15.06392563103285","OBJECT_TYPE":"PAYLOAD","NORAD_CAT_ID":"47876","MEAN_ELEMENT_THEORY":"SGP4","REF_FRAME":"TEME"},{"MEAN_ANOMALY":"281.1613","GP_ID":"223546449","SITE":"AFETR","MEAN_MOTION_DDOT":"0.0000000000000","REV_AT_EPOCH":"10372","DECAY_DATE":null,"PERIAPSIS":"545.928","BSTAR":"0.00100920000000","ELEMENT_SET_NO":"999","FILE":"3755973","INCLINATION":"53.0526","TIME_SYSTEM":"UTC","CLASSIFICATION_TYPE":"U","ARG_OF_PERICENTER":"78.9586","EPOCH":"2023-01-20T11:04:57.616608","MEAN_MOTION_DOT":"0.00014781","MEAN_MOTION":"15.06396520","ECCENTRICITY":"0.00018720","TLE_LINE1":"1 47877U 21021T   23020.46177797  .00014781  00000-0  10092-2 0  9999","EPHEMERIS_TYPE":"0","COUNTRY_CODE":"US","OBJECT_ID":"2021-021T","SEMIMAJOR_AXIS":"6925.359","CENTER_NAME":"EARTH","RA_OF_ASC_NODE":"8.2664","PERIOD":"95.592","LAUNCH_DATE":"2021-03-14","RCS_SIZE":"LARGE","OBJECT_NAME":"STARLINK-2333","APOAPSIS":"548.521","MEAN_ELEMENT_THEORY":"SGP4","REF_FRAME":"TEME","TLE_LINE2":"2 47877  53.0526   8.2664 0001872  78.9586 281.1613 15.06396520103725","OBJECT_TYPE":"PAYLOAD","NORAD_CAT_ID":"47877"},{"ECCENTRICITY":"0.00019050","MEAN_MOTION":"15.06389197","TLE_LINE1":"1 47878U 21021U   23020.34014238  .00026010  00000-0  17591-2 0  9996","EPOCH":"2023-01-20T08:09:48.301632","MEAN_MOTION_DOT":"0.00026010","INCLINATION":"53.0537","ARG_OF_PERICENTER":"90.5860","CLASSIFICATION_TYPE":"U","TIME_SYSTEM":"UTC","DECAY_DATE":null,"REV_AT_EPOCH":"10350","BSTAR":"0.00175910000000","PERIAPSIS":"545.927","ELEMENT_SET_NO":"999","FILE":"3755973","SITE":"AFETR","MEAN_MOTION_DDOT":"0.0000000000000","MEAN_ANOMALY":"269.5347","GP_ID":"223545199","OBJECT_TYPE":"PAYLOAD","TLE_LINE2":"2 47878  53.0537   8.8080 0001905  90.5860 269.5347 15.06389197103500","NORAD_CAT_ID":"47878","MEAN_ELEMENT_THEORY":"SGP4","REF_FRAME":"TEME","OBJECT_NAME":"STARLINK-2335","APOAPSIS":"548.566","PERIOD":"95.593","RCS_SIZE":"LARGE","LAUNCH_DATE":"2021-03-14","OBJECT_ID":"2021-021U","SEMIMAJOR_AXIS":"6925.382","CENTER_NAME":"EARTH","RA_OF_ASC_NODE":"8.8080","EPHEMERIS_TYPE":"0","COUNTRY_CODE":"US"},{"APOAPSIS":"548.690","OBJECT_NAME":"STARLINK-2336","NORAD_CAT_ID":"47879","TLE_LINE2":"2 47879  53.0544  24.1199 0002081  90.4911 269.6316 15.06388332103667","OBJECT_TYPE":"PAYLOAD","REF_FRAME":"TEME","MEAN_ELEMENT_THEORY":"SGP4","CENTER_NAME":"EARTH","OBJECT_ID":"2021-021V","SEMIMAJOR_AXIS":"6925.384","RA_OF_ASC_NODE":"24.1199","EPHEMERIS_TYPE":"0","COUNTRY_CODE":"US","PERIOD":"95.593","LAUNCH_DATE":"2021-03-14","RCS_SIZE":"LARGE","EPOCH":"2023-01-20T06:29:37.182336","MEAN_MOTION_DOT":"-0.00000898","ARG_OF_PERICENTER":"90.4911","CLASSIFICATION_TYPE":"U","TIME_SYSTEM":"UTC","INCLINATION":"53.0544","ECCENTRICITY":"0.00020810","MEAN_MOTION":"15.06388332","TLE_LINE1":"1 47879U 21021V   23020.27056924 -.00000898  00000-0 -41412-4 0  9996","SITE":"AFETR","MEAN_MOTION_DDOT":"0.0000000000000","GP_ID":"223545449","MEAN_ANOMALY":"269.6316","PERIAPSIS":"545.808","BSTAR":"-0.00004141200000","REV_AT_EPOCH":"10366","DECAY_DATE":null,"FILE":"3755973","ELEMENT_SET_NO":"999"},{"EPOCH":"2023-01-20T16:59:16.951776","MEAN_MOTION_DOT":"0.00016530","INCLINATION":"53.0526","ARG_OF_PERICENTER":"95.1283","CLASSIFICATION_TYPE":"U","TIME_SYSTEM":"UTC","ECCENTRICITY":"0.00025520","MEAN_MOTION":"15.06407008","TLE_LINE1":"1 47880U 21021W   23020.70783509  .00016530  00000-0  11258-2 0  9993","SITE":"AFETR","MEAN_MOTION_DDOT":"0.0000000000000","MEAN_ANOMALY":"264.9997","GP_ID":"223555636","DECAY_DATE":null,"REV_AT_EPOCH":"10315","BSTAR":"0.00112580000000","PERIAPSIS":"545.425","ELEMENT_SET_NO":"999","FILE":"3756218","OBJECT_NAME":"STARLINK-2337","APOAPSIS":"548.959","TLE_LINE2":"2 47880  53.0526  17.1593 0002552  95.1283 264.9997 15.06407008103155","OBJECT_TYPE":"PAYLOAD","NORAD_CAT_ID":"47880","MEAN_ELEMENT_THEORY":"SGP4","REF_FRAME":"TEME","OBJECT_ID":"2021-021W","SEMIMAJOR_AXIS":"6925.327","CENTER_NAME":"EARTH","RA_OF_ASC_NODE":"17.1593","EPHEMERIS_TYPE":"0","COUNTRY_CODE":"US","PERIOD":"95.592","LAUNCH_DATE":"2021-03-14","RCS_SIZE":"LARGE"}];
